COSMOS 2550             
1 48865U 21056A   26067.47400841 -.00000192  00000+0 -13338-7 0  9992
2 48865  67.1451  44.6088 0008369 269.6014  90.4182 15.33829151263273
STARLINK-35616          
1 66255U 25245X   26068.81624688  .00025715  00000+0  87701-3 0  9992
2 66255  53.1574 283.4641 0001416 133.3081 226.8038 15.30212716 21279
